{
  "type": "FeatureCollection",
  "features": [
    {
      "type": "Feature",
      "properties": {
        "norad_id": 66926,
        "name": "STARLINK-35942",
        "group": "last-30-days",
        "lat": -4.632800192283099,
        "lon": 21.814230744485425,
        "alt_km": 317.8759403141021,
        "timestamp": "2025-12-17T17:50:17.975209+00:00",
        "meta_object_name": "STARLINK-35942",
        "meta_object_id": "2025-286B",
        "meta_epoch": "2025-12-17T06:00:00.999648",
        "meta_mean_motion": 15.86350532,
        "meta_eccentricity": 8.036e-05,
        "meta_inclination": 53.157,
        "meta_ra_of_asc_node": 27.7882,
        "meta_arg_of_pericenter": 88.9775,
        "meta_mean_anomaly": 328.0005,
        "meta_ephemeris_type": 0,
        "meta_classification_type": "U",
        "meta_norad_cat_id": 66926,
        "meta_element_set_no": 999,
        "meta_rev_at_epoch": 271,
        "meta_bstar": -0.0054985768,
        "meta_mean_motion_dot": -0.01248676,
        "meta_mean_motion_ddot": 0,
        "tle_line1": "1 66926U 25286B   25351.25001157 -.01248676  00000+0 -54986-2 0  9998",
        "tle_line2": "2 66926  53.1570  27.7882 0000803  88.9775 328.0005 15.86350532  2717"
      },
      "geometry": {
        "type": "Point",
        "coordinates": [
          21.814230744485425,
          -4.632800192283099
        ]
      }
    },
    {
      "type": "Feature",
      "properties": {
        "norad_id": 66927,
        "name": "STARLINK-35943",
        "group": "last-30-days",
        "lat": -2.9875380421683952,
        "lon": 23.05092258961758,
        "alt_km": 317.53898223094075,
        "timestamp": "2025-12-17T17:50:17.975219+00:00",
        "meta_object_name": "STARLINK-35943",
        "meta_object_id": "2025-286C",
        "meta_epoch": "2025-12-17T06:00:00.999648",
        "meta_mean_motion": 15.86381459,
        "meta_eccentricity": 7.702e-05,
        "meta_inclination": 53.1571,
        "meta_ra_of_asc_node": 27.7842,
        "meta_arg_of_pericenter": 84.2493,
        "meta_mean_anomaly": 334.7374,
        "meta_ephemeris_type": 0,
        "meta_classification_type": "U",
        "meta_norad_cat_id": 66927,
        "meta_element_set_no": 999,
        "meta_rev_at_epoch": 271,
        "meta_bstar": -0.0055143272,
        "meta_mean_motion_dot": -0.01253522,
        "meta_mean_motion_ddot": 0,
        "tle_line1": "1 66927U 25286C   25351.25001157 -.01253522  00000+0 -55143-2 0  9991",
        "tle_line2": "2 66927  53.1571  27.7842 0000770  84.2493 334.7374 15.86381459  2719"
      },
      "geometry": {
        "type": "Point",
        "coordinates": [
          23.05092258961758,
          -2.9875380421683952
        ]
      }
    },
    {
      "type": "Feature",
      "properties": {
        "norad_id": 66928,
        "name": "STARLINK-35944",
        "group": "last-30-days",
        "lat": -6.309011063505102,
        "lon": 20.546858046952263,
        "alt_km": 318.1167656736234,
        "timestamp": "2025-12-17T17:50:17.975231+00:00",
        "meta_object_name": "STARLINK-35944",
        "meta_object_id": "2025-286D",
        "meta_epoch": "2025-12-17T06:00:00.999648",
        "meta_mean_motion": 15.86322572,
        "meta_eccentricity": 7.347e-05,
        "meta_inclination": 53.1571,
        "meta_ra_of_asc_node": 27.7925,
        "meta_arg_of_pericenter": 84.7249,
        "meta_mean_anomaly": 330.197,
        "meta_ephemeris_type": 0,
        "meta_classification_type": "U",
        "meta_norad_cat_id": 66928,
        "meta_element_set_no": 999,
        "meta_rev_at_epoch": 271,
        "meta_bstar": -0.00548588,
        "meta_mean_motion_dot": -0.01244556,
        "meta_mean_motion_ddot": 0,
        "tle_line1": "1 66928U 25286D   25351.25001157 -.01244556  00000+0 -54859-2 0  9992",
        "tle_line2": "2 66928  53.1571  27.7925 0000734  84.7249 330.1970 15.86322572  2719"
      },
      "geometry": {
        "type": "Point",
        "coordinates": [
          20.546858046952263,
          -6.309011063505102
        ]
      }
    },
    {
      "type": "Feature",
      "properties": {
        "norad_id": 66929,
        "name": "STARLINK-36169",
        "group": "last-30-days",
        "lat": -1.2066176787003196,
        "lon": 24.383922644485455,
        "alt_km": 317.14313909191605,
        "timestamp": "2025-12-17T17:50:17.975243+00:00",
        "meta_object_name": "STARLINK-36169",
        "meta_object_id": "2025-286E",
        "meta_epoch": "2025-12-17T06:00:00.999648",
        "meta_mean_motion": 15.86407405,
        "meta_eccentricity": 9.077e-05,
        "meta_inclination": 53.157,
        "meta_ra_of_asc_node": 27.7795,
        "meta_arg_of_pericenter": 76.0669,
        "meta_mean_anomaly": 345.1049,
        "meta_ephemeris_type": 0,
        "meta_classification_type": "U",
        "meta_norad_cat_id": 66929,
        "meta_element_set_no": 999,
        "meta_rev_at_epoch": 271,
        "meta_bstar": -0.0055228247,
        "meta_mean_motion_dot": -0.01256738,
        "meta_mean_motion_ddot": 0,
        "tle_line1": "1 66929U 25286E   25351.25001157 -.01256738  00000+0 -55228-2 0  9999",
        "tle_line2": "2 66929  53.1570  27.7795 0000907  76.0669 345.1049 15.86407405  2718"
      },
      "geometry": {
        "type": "Point",
        "coordinates": [
          24.383922644485455,
          -1.2066176787003196
        ]
      }
    },
    {
      "type": "Feature",
      "properties": {
        "norad_id": 66930,
        "name": "STARLINK-36206",
        "group": "last-30-days",
        "lat": 0.40607233202818044,
        "lon": 25.58891890665602,
        "alt_km": 316.89416609696036,
        "timestamp": "2025-12-17T17:50:17.975253+00:00",
        "meta_object_name": "STARLINK-36206",
        "meta_object_id": "2025-286F",
        "meta_epoch": "2025-12-17T06:00:00.999648",
        "meta_mean_motion": 15.86443565,
        "meta_eccentricity": 8.243e-05,
        "meta_inclination": 53.157,
        "meta_ra_of_asc_node": 27.7752,
        "meta_arg_of_pericenter": 79.7826,
        "meta_mean_anomaly": 343.351,
        "meta_ephemeris_type": 0,
        "meta_classification_type": "U",
        "meta_norad_cat_id": 66930,
        "meta_element_set_no": 999,
        "meta_rev_at_epoch": 271,
        "meta_bstar": -0.0055664678,
        "meta_mean_motion_dot": -0.01267479,
        "meta_mean_motion_ddot": 0,
        "tle_line1": "1 66930U 25286F   25351.25001157 -.01267479  00000+0 -55665-2 0  9990",
        "tle_line2": "2 66930  53.1570  27.7752 0000824  79.7826 343.3510 15.86443565  2716"
      },
      "geometry": {
        "type": "Point",
        "coordinates": [
          25.58891890665602,
          0.40607233202818044
        ]
      }
    },
    {
      "type": "Feature",
      "properties": {
        "norad_id": 66931,
        "name": "STARLINK-36130",
        "group": "last-30-days",
        "lat": 2.233557400773714,
        "lon": 26.955693969693634,
        "alt_km": 316.5889833188485,
        "timestamp": "2025-12-17T17:50:17.975263+00:00",
        "meta_object_name": "STARLINK-36130",
        "meta_object_id": "2025-286G",
        "meta_epoch": "2025-12-17T06:00:00.999648",
        "meta_mean_motion": 15.86474845,
        "meta_eccentricity": 8.348e-05,
        "meta_inclination": 53.1568,
        "meta_ra_of_asc_node": 27.7707,
        "meta_arg_of_pericenter": 81.2282,
        "meta_mean_anomaly": 344.1452,
        "meta_ephemeris_type": 0,
        "meta_classification_type": "U",
        "meta_norad_cat_id": 66931,
        "meta_element_set_no": 999,
        "meta_rev_at_epoch": 271,
        "meta_bstar": -0.0056102725,
        "meta_mean_motion_dot": -0.01278044,
        "meta_mean_motion_ddot": 0,
        "tle_line1": "1 66931U 25286G   25351.25001157 -.01278044  00000+0 -56103-2 0  9999",
        "tle_line2": "2 66931  53.1568  27.7707 0000834  81.2282 344.1452 15.86474845  2718"
      },
      "geometry": {
        "type": "Point",
        "coordinates": [
          26.955693969693634,
          2.233557400773714
        ]
      }
    },
    {
      "type": "Feature",
      "properties": {
        "norad_id": 66932,
        "name": "STARLINK-36177",
        "group": "last-30-days",
        "lat": 6.303802899975413,
        "lon": 30.02086437415765,
        "alt_km": 308.8320012830354,
        "timestamp": "2025-12-17T17:50:17.975276+00:00",
        "meta_object_name": "STARLINK-36177",
        "meta_object_id": "2025-286H",
        "meta_epoch": "2025-12-17T06:00:00.999648",
        "meta_mean_motion": 15.87043995,
        "meta_eccentricity": 4.541e-05,
        "meta_inclination": 53.1571,
        "meta_ra_of_asc_node": 27.7662,
        "meta_arg_of_pericenter": 75.4797,
        "meta_mean_anomaly": 352.2004,
        "meta_ephemeris_type": 0,
        "meta_classification_type": "U",
        "meta_norad_cat_id": 66932,
        "meta_element_set_no": 999,
        "meta_rev_at_epoch": 271,
        "meta_bstar": 0.0022677754,
        "meta_mean_motion_dot": 0.00645731,
        "meta_mean_motion_ddot": 0,
        "tle_line1": "1 66932U 25286H   25351.25001157  .00645731  00000+0  22678-2 0  9998",
        "tle_line2": "2 66932  53.1571  27.7662 0000454  75.4797 352.2004 15.87043995  2719"
      },
      "geometry": {
        "type": "Point",
        "coordinates": [
          30.02086437415765,
          6.303802899975413
        ]
      }
    }
  ]
}